GLOBALSTAR M068         
1 32266U 07048D   26062.93956084 -.00000073  00000+0  17387-3 0  9997
2 32266  51.9865 230.4318 0001141  40.8848 125.1844 12.62842062850376
GLOBALSTAR M079         
1 37188U 10054A   26062.44806741 -.00000095  00000+0  47861-4 0  9991
2 37188  52.0037  70.5538 0000601 114.0427  50.2878 12.62263828709196
GLOBALSTAR M074         
1 37189U 10054B   26063.16818155 -.00000099  00000+0  24328-4 0  9991
2 37189  52.0015  67.6443 0000273 126.5843 310.9122 12.62266360709899
GLOBALSTAR M076         
1 37190U 10054C   26063.02684490 -.00000100  00000+0  19498-4 0  9996
2 37190  52.0034  68.2687 0000494 138.7317 256.2233 12.62270410709598
GLOBALSTAR M077         
1 37191U 10054D   26062.24373961 -.00000080  00000+0 -36574-4 0  9990
2 37191  51.9959  88.3137 0000641 149.7129 289.7295 11.68176369708763
GLOBALSTAR M075         
1 37192U 10054E   26063.11550278 -.00000075  00000+0  16310-3 0  9994
2 37192  51.9934 110.1124 0000460 110.7241 267.6227 12.62264795708675
GLOBALSTAR M073         
1 37193U 10054F   26063.04947887 -.00000107  00000+0 -16735-4 0  9992
2 37193  52.0083  24.3312 0000520 103.0199 334.0467 12.62269715710655
GLOBALSTAR M083         
1 37739U 11033A   26063.15701447 -.00000073  00000+0  17017-3 0  9992
2 37739  51.9882 332.3793 0000767  89.9780  57.6025 12.62267398679682
GLOBALSTAR M088         
1 37740U 11033B   26062.80450987 -.00000106  00000+0 -96957-5 0  9995
2 37740  52.0195 239.6246 0000853  94.2964   9.5473 12.62262097675189
GLOBALSTAR M091         
1 37741U 11033C   26062.83095775 -.00000110  00000+0 -34753-4 0  9999
2 37741  51.9983 202.6643 0000932  97.2281  66.9437 12.62270210675977
GLOBALSTAR M085         
1 37742U 11033D   26063.18015953 -.00000078  00000+0  14622-3 0  9993
2 37742  52.0120 152.8016 0000855 105.0942 267.0200 12.62269433676539
GLOBALSTAR M081         
1 37743U 11033E   26063.20735447 -.00000083  00000+0  11691-3 0  9993
2 37743  51.9949 155.2739 0000782 121.0680 254.7801 12.62262625676684
GLOBALSTAR M089         
1 37744U 11033F   26063.08877709 -.00000063  00000+0  22781-3 0  9998
2 37744  51.9919 109.8147 0000364 157.4427 219.3161 12.62264601677513
GLOBALSTAR M084         
1 38040U 11080A   26063.12903839 -.00000128  00000+0 -13327-3 0  9998
2 38040  52.0036 337.1190 0000351  82.4947  57.1555 12.62265034655498
GLOBALSTAR M080         
1 38041U 11080B   26063.18537471 -.00000079  00000+0  14033-3 0  9999
2 38041  52.0085 338.6295 0000991  58.0480 107.1854 12.62266846655621
GLOBALSTAR M082         
1 38042U 11080C   26063.03782814 -.00000067  00000+0  20601-3 0  9992
2 38042  52.0076 294.5699 0001098  70.9438  73.4082 12.62267967656315
GLOBALSTAR M092         
1 38043U 11080D   26063.07647340 -.00000101  00000+0  13004-4 0  9990
2 38043  52.0105  24.8380 0000364  81.0516 359.0446 12.62264217654775
GLOBALSTAR M090         
1 38044U 11080E   26062.81268800 -.00000071  00000+0  18198-3 0  9996
2 38044  52.0119 289.1774 0000922  86.7915 352.8800 12.62271636656409
GLOBALSTAR M086         
1 38045U 11080F   26062.83647802 -.00000076  00000+0  15657-3 0  9994
2 38045  51.9897 289.2065 0001298 141.3579 300.9117 12.62283345656355
GLOBALSTAR M097         
1 39072U 13005A   26062.76807402 -.00000123  00000+0 -10777-3 0  9992
2 39072  52.0030 204.2367 0001041 109.5673 250.5307 12.62284371603595
GLOBALSTAR M093         
1 39073U 13005B   26062.74195992 -.00000110  00000+0 -32836-4 0  9992
2 39073  52.0094 197.6251 0001197 110.3054 249.7941 12.62273232603541
GLOBALSTAR M094         
1 39074U 13005C   26063.13804179 -.00000080  00000+0  13312-3 0  9993
2 39074  51.9951 110.6438 0000717 117.3777 242.7163 12.62267014605205
GLOBALSTAR M096         
1 39075U 13005D   26062.43852761 -.00000103  00000+0  41286-5 0  9995
2 39075  52.0066 161.4899 0000889 109.1511 250.9452 12.62263276604033
GLOBALSTAR M078         
1 39076U 13005E   26062.80785563 -.00000103  00000+0  18939-5 0  9991
2 39076  51.9853 244.5218 0001490  62.8473 297.2545 12.62275925602708
GLOBALSTAR M095         
1 39077U 13005F   26062.83447060 -.00000112  00000+0 -45418-4 0  9994
2 39077  52.0060 241.8962 0001366  85.6254 274.4769 12.62276081602562
GLOBALSTAR M087         
1 52888U 22064A   26063.16454539 -.00000104  00000+0 -88348-6 0  9992
2 52888  52.0020  22.1887 0000674  84.6895 275.4048 12.62266789177876
